PROGRESS-MS 32          
1 65586U 25204A   25310.93718525  .00010004  00000+0  18426-3 0  9992
2 65586  51.6334 319.7134 0005156  25.1218 335.0021 15.49804267   277
CYGNUS NG-23            
1 65616U 25208A   25310.93718525  .00010004  00000+0  18426-3 0  9990
2 65616  51.6334 319.7134 0005156  25.1218 335.0021 15.49804267   226
1998-067XJ              
1 65730U 98067XJ  25310.30495846  .00394142  00000+0  29815-2 0  9990
2 65730  51.6280 319.2366 0011227  66.4281 293.7894 15.70599974  7471
1998-067XK              
1 65731U 98067XK  25310.32944305  .00089418  00000+0  11470-2 0  9997
2 65731  51.6331 320.9110 0005216  62.0844 298.0676 15.58374630  7453
YOTSUBA-KULOVER         
1 65941U 98067XN  25310.31144519  .00071602  00000+0  10917-2 0  9999
2 65941  51.6323 322.2864 0002628  13.3948 346.7112 15.53808670  4180
BOTAN                   
1 65942U 98067XP  25310.94529079  .00066291  00000+0  96955-3 0  9992
2 65942  51.6322 319.0210 0004967  31.2909 328.8377 15.54973125  4287
E-KAGAKU-1              
1 65943U 98067XQ  25309.47487028  .00055785  00000+0  85730-3 0  9991
2 65943  51.6326 326.4510 0004385  13.9907 346.1204 15.53691300  4054
HRC MONOBLOCK CAMERA    
1 66052U 98067XR  25310.54067587  .00039579  00000+0  67448-3 0  9996
2 66052  51.6322 321.5642 0004584  35.8874 324.2423 15.50961464  3216
HTV-X1                  
1 66174U 25241A   25310.93718525  .00010004  00000+0  18426-3 0  9997
2 66174  51.6334 319.7134 0005156  25.1218 335.0021 15.49804267  1452
